{
    "links": {
        "self": "http://www.neowsapp.com/rest/v1/neo/3785691?api_key=iIulBulltgU6a56xZRHN4H3l9WmuAYTsLGpBGhQ2"
    },
    "id": "3785691",
    "neo_reference_id": "3785691",
    "name": "(2017 TE2)",
    "designation": "2017 TE2",
    "nasa_jpl_url": "http://ssd.jpl.nasa.gov/sbdb.cgi?sstr=3785691",
    "absolute_magnitude_h": 23.3,
    "estimated_diameter": {
        "kilometers": {
            "estimated_diameter_min": 0.058150704,
            "estimated_diameter_max": 0.130028927
        },
        "meters": {
            "estimated_diameter_min": 58.1507039646,
            "estimated_diameter_max": 130.0289270043
        },
        "miles": {
            "estimated_diameter_min": 0.0361331611,
            "estimated_diameter_max": 0.0807962044
        },
        "feet": {
            "estimated_diameter_min": 190.7831555951,
            "estimated_diameter_max": 426.6041048727
        }
    },
    "is_potentially_hazardous_asteroid": false,
    "close_approach_data": [
        {
            "close_approach_date": "2017-10-03",
            "close_approach_date_full": "2017-Oct-03 11:58",
            "epoch_date_close_approach": 1507031880000,
            "relative_velocity": {
                "kilometers_per_second": "14.6574982316",
                "kilometers_per_hour": "52766.9936336462",
                "miles_per_hour": "32787.3577941954"
            },
            "miss_distance": {
                "astronomical": "0.0333096919",
                "lunar": "12.9574701491",
                "kilometers": "4983058.958596253",
                "miles": "3096329.2581761714"
            },
            "orbiting_body": "Earth"
        },
        {
            "close_approach_date": "2080-05-02",
            "close_approach_date_full": "2080-May-02 12:13",
            "epoch_date_close_approach": 3481877580000,
            "relative_velocity": {
                "kilometers_per_second": "21.592925343",
                "kilometers_per_hour": "77734.5312347316",
                "miles_per_hour": "48301.2146997142"
            },
            "miss_distance": {
                "astronomical": "0.2715519185",
                "lunar": "105.6336962965",
                "kilometers": "40623588.602013595",
                "miles": "25242327.455013811"
            },
            "orbiting_body": "Earth"
        },
        {
            "close_approach_date": "2082-10-29",
            "close_approach_date_full": "2082-Oct-29 06:42",
            "epoch_date_close_approach": 3560481720000,
            "relative_velocity": {
                "kilometers_per_second": "28.0138059521",
                "kilometers_per_hour": "100849.7014273912",
                "miles_per_hour": "62664.0825341476"
            },
            "miss_distance": {
                "astronomical": "0.4815432389",
                "lunar": "187.3203199321",
                "kilometers": "72037842.852341143",
                "miles": "44762239.8958000534"
            },
            "orbiting_body": "Earth"
        },
        {
            "close_approach_date": "2082-12-29",
            "close_approach_date_full": "2082-Dec-29 09:44",
            "epoch_date_close_approach": 3565763040000,
            "relative_velocity": {
                "kilometers_per_second": "10.6221222208",
                "kilometers_per_hour": "38239.6399949552",
                "miles_per_hour": "23760.6251957543"
            },
            "miss_distance": {
                "astronomical": "0.0721504101",
                "lunar": "28.0665095289",
                "kilometers": "10793547.670586487",
                "miles": "6706799.5240760406"
            },
            "orbiting_body": "Mars"
        }
    ],
    "orbital_data": {
        "orbit_id": "10",
        "orbit_determination_date": "2017-10-24 06:21:37",
        "first_observation_date": "2017-10-07",
        "last_observation_date": "2017-10-23",
        "data_arc_in_days": 16,
        "observations_used": 89,
        "orbit_uncertainty": "8",
        "minimum_orbit_intersection": ".00182755",
        "jupiter_tisserand_invariant": "4.007",
        "epoch_osculation": "2458041.5",
        "eccentricity": ".5285078731376854",
        "semi_major_axis": "1.715631504252852",
        "inclination": "2.547346033452605",
        "ascending_node_longitude": "5.169650211565367",
        "orbital_period": "820.794515404349",
        "perihelion_distance": ".8089067468521695",
        "perihelion_argument": "298.7567831409125",
        "aphelion_distance": "2.622356261653536",
        "perihelion_time": "2457985.085774616965",
        "mean_anomaly": "24.74324664302574",
        "mean_motion": ".4385994219547785",
        "equinox": "J2000",
        "orbit_class": {
            "orbit_class_type": "APO",
            "orbit_class_description": "Near-Earth asteroid orbits which cross the Earth’s orbit similar to that of 1862 Apollo",
            "orbit_class_range": "a (semi-major axis) > 1.0 AU; q (perihelion) < 1.017 AU"
        }
    },
    "is_sentry_object": false
}